start=new Date('2022-11-01T00:00:00.000Z').valueOf();
sats=[{"EPOCH":"2022-10-31T20:48:56.879136","MEAN_MOTION_DDOT":"0.0000000000000","GP_ID":"216613507","RA_OF_ASC_NODE":"245.0623","MEAN_ELEMENT_THEORY":"SGP4","REF_FRAME":"TEME","BSTAR":"-0.00000700210000","EPHEMERIS_TYPE":"0","PERIAPSIS":"546.109","TLE_LINE1":"1 45387U 20019AD  22304.86732499 -.00000386  00000-0 -70021-5 0  9992","ELEMENT_SET_NO":"999","RCS_SIZE":"LARGE","DECAY_DATE":null,"NORAD_CAT_ID":"45387","ECCENTRICITY":"0.00016580","INCLINATION":"53.0554","MEAN_MOTION_DOT":"-0.00000386","OBJECT_ID":"2020-019AD","OBJECT_NAME":"STARLINK-1274","TLE_LINE2":"2 45387  53.0554 245.0623 0001658  61.9992 298.1164 15.06385684145398","REV_AT_EPOCH":"14539","COUNTRY_CODE":"US","CLASSIFICATION_TYPE":"U","PERIOD":"95.593","SEMIMAJOR_AXIS":"6925.392","FILE":"3639522","MEAN_ANOMALY":"298.1164","SITE":"AFETR","TIME_SYSTEM":"UTC","OBJECT_TYPE":"PAYLOAD","ARG_OF_PERICENTER":"61.9992","APOAPSIS":"548.406","MEAN_MOTION":"15.06385684","CENTER_NAME":"EARTH","LAUNCH_DATE":"2020-03-18"},{"PERIOD":"95.593","REV_AT_EPOCH":"14510","COUNTRY_CODE":"US","CLASSIFICATION_TYPE":"U","OBJECT_NAME":"STARLINK-1280","TLE_LINE2":"2 45388  53.0556 265.2040 0001902  50.9076 309.2082 15.06388910145108","INCLINATION":"53.0556","MEAN_MOTION_DOT":"-0.00000324","OBJECT_ID":"2020-019AE","LAUNCH_DATE":"2020-03-18","APOAPSIS":"548.565","MEAN_MOTION":"15.06388910","CENTER_NAME":"EARTH","OBJECT_TYPE":"PAYLOAD","ARG_OF_PERICENTER":"50.9076","SEMIMAJOR_AXIS":"6925.383","FILE":"3639522","SITE":"AFETR","MEAN_ANOMALY":"309.2082","TIME_SYSTEM":"UTC","MEAN_ELEMENT_THEORY":"SGP4","RA_OF_ASC_NODE":"265.2040","EPOCH":"2022-10-31T20:03:49.150656","GP_ID":"216613758","MEAN_MOTION_DDOT":"0.0000000000000","ECCENTRICITY":"0.00019020","RCS_SIZE":"LARGE","NORAD_CAT_ID":"45388","DECAY_DATE":null,"TLE_LINE1":"1 45388U 20019AE  22304.83598554 -.00000324  00000-0 -28581-5 0  9998","ELEMENT_SET_NO":"999","BSTAR":"-0.00000285810000","REF_FRAME":"TEME","EPHEMERIS_TYPE":"0","PERIAPSIS":"545.930"},{"SEMIMAJOR_AXIS":"6925.355","FILE":"3639522","SITE":"AFETR","MEAN_ANOMALY":"284.6623","TIME_SYSTEM":"UTC","OBJECT_TYPE":"PAYLOAD","ARG_OF_PERICENTER":"75.4537","APOAPSIS":"548.288","MEAN_MOTION":"15.06397972","CENTER_NAME":"EARTH","LAUNCH_DATE":"2020-03-18","INCLINATION":"53.0524","MEAN_MOTION_DOT":"-0.00004371","OBJECT_ID":"2020-019AF","OBJECT_NAME":"STARLINK-1283","TLE_LINE2":"2 45389  53.0524 245.0038 0001542  75.4537 284.6623 15.06397972145409","REV_AT_EPOCH":"14540","COUNTRY_CODE":"US","CLASSIFICATION_TYPE":"U","PERIOD":"95.592","REF_FRAME":"TEME","BSTAR":"-0.00027473000000","EPHEMERIS_TYPE":"0","PERIAPSIS":"546.152","TLE_LINE1":"1 45389U 20019AF  22304.88207480 -.00004371  00000-0 -27473-3 0  9992","ELEMENT_SET_NO":"999","RCS_SIZE":"LARGE","NORAD_CAT_ID":"45389","DECAY_DATE":null,"ECCENTRICITY":"0.00015420","EPOCH":"2022-10-31T21:10:11.262720","MEAN_MOTION_DDOT":"0.0000000000000","GP_ID":"216614507","RA_OF_ASC_NODE":"245.0038","MEAN_ELEMENT_THEORY":"SGP4"},{"RA_OF_ASC_NODE":"245.1092","EPOCH":"2022-10-31T20:33:00.641088","GP_ID":"216613257","MEAN_MOTION_DDOT":"0.0000000000000","MEAN_ELEMENT_THEORY":"SGP4","TLE_LINE1":"1 45390U 20019AG  22304.85625742  .00001156  00000-0  96493-4 0  9991","ELEMENT_SET_NO":"999","BSTAR":"0.00009649300000","REF_FRAME":"TEME","EPHEMERIS_TYPE":"0","PERIAPSIS":"546.046","ECCENTRICITY":"0.00017110","RCS_SIZE":"LARGE","DECAY_DATE":null,"NORAD_CAT_ID":"45390","OBJECT_NAME":"STARLINK-1284","TLE_LINE2":"2 45390  53.0563 245.1092 0001711  57.4782 302.6372 15.06394250145391","INCLINATION":"53.0563","MEAN_MOTION_DOT":"0.00001156","OBJECT_ID":"2020-019AG","PERIOD":"95.593","REV_AT_EPOCH":"14539","COUNTRY_CODE":"US","CLASSIFICATION_TYPE":"U","OBJECT_TYPE":"PAYLOAD","ARG_OF_PERICENTER":"57.4782","SEMIMAJOR_AXIS":"6925.366","FILE":"3639522","MEAN_ANOMALY":"302.6372","SITE":"AFETR","TIME_SYSTEM":"UTC","LAUNCH_DATE":"2020-03-18","APOAPSIS":"548.416","MEAN_MOTION":"15.06394250","CENTER_NAME":"EARTH"},{"PERIOD":"95.592","CLASSIFICATION_TYPE":"U","REV_AT_EPOCH":"14512","COUNTRY_CODE":"US","OBJECT_NAME":"STARLINK-1289","TLE_LINE2":"2 45391  53.0543 245.0480 0001304  86.3325 273.7814 15.06398402145125","OBJECT_ID":"2020-019AH","INCLINATION":"53.0543","MEAN_MOTION_DOT":"-0.00001293","LAUNCH_DATE":"2020-03-18","MEAN_MOTION":"15.06398402","CENTER_NAME":"EARTH","APOAPSIS":"548.122","OBJECT_TYPE":"PAYLOAD","ARG_OF_PERICENTER":"86.3325","MEAN_ANOMALY":"273.7814","SITE":"AFETR","TIME_SYSTEM":"UTC","FILE":"3639522","SEMIMAJOR_AXIS":"6925.353","MEAN_ELEMENT_THEORY":"SGP4","RA_OF_ASC_NODE":"245.0480","MEAN_MOTION_DDOT":"0.0000000000000","GP_ID":"216613008","EPOCH":"2022-10-31T20:52:52.573152","ECCENTRICITY":"0.00013040","RCS_SIZE":"LARGE","DECAY_DATE":null,"NORAD_CAT_ID":"45391","ELEMENT_SET_NO":"999","TLE_LINE1":"1 45391U 20019AH  22304.87005293 -.00001293  00000-0 -67898-4 0  9998","EPHEMERIS_TYPE":"0","PERIAPSIS":"546.315","BSTAR":"-0.00006789800000","REF_FRAME":"TEME"},{"FILE":"3638916","SEMIMAJOR_AXIS":"6886.827","MEAN_ANOMALY":"243.7629","SITE":"AFETR","TIME_SYSTEM":"UTC","OBJECT_TYPE":"PAYLOAD","ARG_OF_PERICENTER":"116.3805","APOAPSIS":"511.640","CENTER_NAME":"EARTH","MEAN_MOTION":"15.19056756","LAUNCH_DATE":"2020-03-18","INCLINATION":"52.9937","MEAN_MOTION_DOT":"0.00037718","OBJECT_ID":"2020-019AJ","TLE_LINE2":"2 45392  52.9937 227.6042 0004280 116.3805 243.7629 15.19056756145245","OBJECT_NAME":"STARLINK-1290","COUNTRY_CODE":"US","REV_AT_EPOCH":"14524","CLASSIFICATION_TYPE":"U","PERIOD":"94.796","BSTAR":"0.00178290000000","REF_FRAME":"TEME","PERIAPSIS":"505.744","EPHEMERIS_TYPE":"0","TLE_LINE1":"1 45392U 20019AJ  22304.10699767  .00037718  00000-0  17829-2 0  9996","ELEMENT_SET_NO":"999","NORAD_CAT_ID":"45392","DECAY_DATE":null,"RCS_SIZE":"LARGE","ECCENTRICITY":"0.00042800","EPOCH":"2022-10-31T02:34:04.598688","GP_ID":"216580971","MEAN_MOTION_DDOT":"0.0000000000000","RA_OF_ASC_NODE":"227.6042","MEAN_ELEMENT_THEORY":"SGP4"},{"EPHEMERIS_TYPE":"0","PERIAPSIS":"545.864","BSTAR":"0.00001315300000","REF_FRAME":"TEME","ELEMENT_SET_NO":"999","TLE_LINE1":"1 45393U 20019AK  22304.56874973 -.00000086  00000-0  13153-4 0  9998","NORAD_CAT_ID":"45393","DECAY_DATE":null,"RCS_SIZE":"LARGE","ECCENTRICITY":"0.00019940","GP_ID":"216614009","MEAN_MOTION_DDOT":"0.0000000000000","EPOCH":"2022-10-31T13:38:59.976672","RA_OF_ASC_NODE":"246.4016","MEAN_ELEMENT_THEORY":"SGP4","MEAN_ANOMALY":"317.3268","SITE":"AFETR","TIME_SYSTEM":"UTC","SEMIMAJOR_AXIS":"6925.380","FILE":"3639522","OBJECT_TYPE":"PAYLOAD","ARG_OF_PERICENTER":"42.7876","CENTER_NAME":"EARTH","MEAN_MOTION":"15.06389852","APOAPSIS":"548.626","LAUNCH_DATE":"2020-03-18","OBJECT_ID":"2020-019AK","INCLINATION":"53.0542","MEAN_MOTION_DOT":"-0.00000086","TLE_LINE2":"2 45393  53.0542 246.4016 0001994  42.7876 317.3268 15.06389852145114","OBJECT_NAME":"STARLINK-1291","CLASSIFICATION_TYPE":"U","COUNTRY_CODE":"US","REV_AT_EPOCH":"14511","PERIOD":"95.593"},{"MEAN_ELEMENT_THEORY":"SGP4","EPOCH":"2022-10-31T20:43:37.396992","GP_ID":"216612758","MEAN_MOTION_DDOT":"0.0000000000000","RA_OF_ASC_NODE":"245.0891","RCS_SIZE":"LARGE","NORAD_CAT_ID":"45394","DECAY_DATE":null,"ECCENTRICITY":"0.00017400","REF_FRAME":"TEME","BSTAR":"-0.00001600500000","EPHEMERIS_TYPE":"0","PERIAPSIS":"546.033","TLE_LINE1":"1 45394U 20019AL  22304.86362728 -.00000520  00000-0 -16005-4 0  9995","ELEMENT_SET_NO":"999","REV_AT_EPOCH":"14513","COUNTRY_CODE":"US","CLASSIFICATION_TYPE":"U","PERIOD":"95.593","MEAN_MOTION_DOT":"-0.00000520","INCLINATION":"53.0528","OBJECT_ID":"2020-019AL","OBJECT_NAME":"STARLINK-1292","TLE_LINE2":"2 45394  53.0528 245.0891 0001740  57.8543 302.2615 15.06391964145130","APOAPSIS":"548.443","MEAN_MOTION":"15.06391964","CENTER_NAME":"EARTH","LAUNCH_DATE":"2020-03-18","SEMIMAJOR_AXIS":"6925.373","FILE":"3639522","TIME_SYSTEM":"UTC","SITE":"AFETR","MEAN_ANOMALY":"302.2615","OBJECT_TYPE":"PAYLOAD","ARG_OF_PERICENTER":"57.8543"},{"ARG_OF_PERICENTER":"53.6354","OBJECT_TYPE":"PAYLOAD","TIME_SYSTEM":"UTC","SITE":"AFETR","MEAN_ANOMALY":"306.4779","SEMIMAJOR_AXIS":"6925.387","FILE":"3639522","LAUNCH_DATE":"2020-03-18","MEAN_MOTION":"15.06387336","CENTER_NAME":"EARTH","APOAPSIS":"548.336","OBJECT_NAME":"STARLINK-1297","TLE_LINE2":"2 45395  53.0544 246.4294 0001565  53.6354 306.4779 15.06387336144538","OBJECT_ID":"2020-019AM","INCLINATION":"53.0544","MEAN_MOTION_DOT":"0.00000914","PERIOD":"95.593","CLASSIFICATION_TYPE":"U","REV_AT_EPOCH":"14453","COUNTRY_CODE":"US","ELEMENT_SET_NO":"999","TLE_LINE1":"1 45395U 20019AM  22304.56138767  .00000914  00000-0  80266-4 0  9992","PERIAPSIS":"546.169","EPHEMERIS_TYPE":"0","BSTAR":"0.00008026600000","REF_FRAME":"TEME","ECCENTRICITY":"0.00015650","RCS_SIZE":"LARGE","DECAY_DATE":null,"NORAD_CAT_ID":"45395","RA_OF_ASC_NODE":"246.4294","MEAN_MOTION_DDOT":"0.0000000000000","GP_ID":"216613508","EPOCH":"2022-10-31T13:28:23.894688","MEAN_ELEMENT_THEORY":"SGP4"},{"ELEMENT_SET_NO":"999","TLE_LINE1":"1 45396U 20019AN  22304.87469066 -.00001701  00000-0 -95354-4 0  9997","EPHEMERIS_TYPE":"0","PERIAPSIS":"546.019","BSTAR":"-0.00009535400000","REF_FRAME":"TEME","ECCENTRICITY":"0.00017570","RCS_SIZE":"LARGE","DECAY_DATE":null,"NORAD_CAT_ID":"45396","RA_OF_ASC_NODE":"245.0235","GP_ID":"216613759","MEAN_MOTION_DDOT":"0.0000000000000","EPOCH":"2022-10-31T20:59:33.273024","MEAN_ELEMENT_THEORY":"SGP4","ARG_OF_PERICENTER":"88.2127","OBJECT_TYPE":"PAYLOAD","TIME_SYSTEM":"UTC","SITE":"AFETR","MEAN_ANOMALY":"271.9063","FILE":"3639522","SEMIMAJOR_AXIS":"6925.371","LAUNCH_DATE":"2020-03-18","MEAN_MOTION":"15.06392695","CENTER_NAME":"EARTH","APOAPSIS":"548.453","OBJECT_NAME":"STARLINK-1303","TLE_LINE2":"2 45396  53.0568 245.0235 0001757  88.2127 271.9063 15.06392695145111","OBJECT_ID":"2020-019AN","INCLINATION":"53.0568","MEAN_MOTION_DOT":"-0.00001701","PERIOD":"95.593","CLASSIFICATION_TYPE":"U","REV_AT_EPOCH":"14511","COUNTRY_CODE":"US"}];
